AEROCUBE 12A            
1 43556U 18046C   21013.73143127  .00002100  00000-0  81583-4 0  9999
2 43556  51.6389 174.5953 0007425 331.8584  28.1995 15.30801436139571
AEROCUBE 12B            
1 43557U 18046D   21013.70815941  .00002066  00000-0  81492-4 0  9997
2 43557  51.6409 175.9182 0007616 330.7843  29.2710 15.30363411139508
SURFSAT                 
1 43614U 18070B   21014.35812836  .00003059  00000-0  75012-4 0  9994
2 43614  93.0249 241.9998 0012116 236.0555 123.9549 15.40717585130938
CP7 (DAVE)              
1 43615U 18070C   21014.34925144  .00003015  00000-0  74500-4 0  9994
2 43615  93.0252 241.9706 0012308 235.9189 124.0898 15.40485410130921
ELFIN-B                 
1 43616U 18070D   21014.16558380  .00004402  00000-0  10139-3 0  9997
2 43616  93.0210 241.9350 0012323 236.9042 123.1032 15.42574239130972
ELFIN-A                 
1 43617U 18070E   21014.35939315  .00004674  00000-0  10648-3 0  9996
2 43617  93.0265 242.7154 0011796 231.7307 128.2889 15.42904805131012
CUBEBEL-1 (BSUSAT-1)    
1 43666U 18083E   21014.31293977  .00001358  00000-0  68412-4 0  9996
2 43666  97.4717  44.5376 0014565 353.0014 136.6633 15.18814638122613
CICERO 10               
1 43690U 18088A   21014.29837713  .00001366  00000-0  60169-4 0  9997
2 43690  85.0389 299.3462 0012322 255.0693 104.9184 15.20762387120777
IRVINE01                
1 43693U 18088D   21014.27864347  .00002909  00000-0  11720-3 0  9993
2 43693  85.0359 297.3317 0014822 230.3380 129.6556 15.24279540120944
PROXIMA I               
1 43694U 18088E   21014.24607753  .00001194  00000-0  49617-4 0  9999
2 43694  85.0329 297.3798 0017072 223.3051 136.6850 15.22498720120904
PROXIMA II              
1 43696U 18088G   21014.24419283  .00001192  00000-0  49545-4 0  9998
2 43696  85.0331 297.3873 0017117 223.2698 136.7201 15.22497912120902
FACSAT-1                
1 43721U 18096C   21014.34858757  .00001840  00000-0  69584-4 0  9995
2 43721  97.4030  92.6399 0018808  96.6136 329.9065 15.28095150118589
CENTAURI-2              
1 43722U 18096D   21014.20897095  .00002793  00000-0  10168-3 0  9990
2 43722  97.4035  93.0220 0018595  97.0655 263.2701 15.28909934118588
INNOSAT-2               
1 43738U 18096V   21014.32690291  .00003999  00000-0  13117-3 0  9995
2 43738  97.4074  96.0645 0023756  99.6412 332.0987 15.31934570118798
SIRION PATHFINDER-2     
1 43759U 18099B   21014.16417151  .00000897  00000-0  86251-4 0  9999
2 43759  97.6849  87.9814 0013853 192.9853 167.1014 14.95410114115420
CORVUS BC4              
1 43767U 18099K   21013.91615493  .00000317  00000-0  34293-4 0  9995
2 43767  97.6824  86.9123 0011171 198.8519 161.2289 14.94841903115342
MOVE-II                 
1 43780U 18099Y   21013.74977475  .00001077  00000-0  10184-3 0  9998
2 43780  97.6858  87.5974 0012923 205.7223 154.3357 14.95681890115348
SPACEBEE-7              
1 43816U 18099BL  21014.18574891  .00000126  00000-0  16358-4 0  9996
2 43816  97.6868  88.5410 0013240 189.1018 170.9965 14.95924921114999
SPACEBEE-5              
1 43817U 18099BM  21014.16858876  .00001064  00000-0  97745-4 0  9994
2 43817  97.6948  89.3726 0012997 187.6135 172.4891 14.96860495115025
SPACEBEE-6              
1 43818U 18099BN  21014.18384684  .00000259  00000-0  28084-4 0  9993
2 43818  97.6891  88.8006 0013195 188.9473 171.1515 14.96210402115158
SHIELDS 1               
1 43850U 18104B   21013.79515334  .00000654  00000-0  27050-4 0  9991
2 43850  85.0277  36.2586 0015679  25.7668 334.4351 15.21649694115459
STF-1                   
1 43852U 18104D   21013.60659818  .00001375  00000-0  58486-4 0  9997
2 43852  85.0318  37.0329 0015789  40.2404 320.0003 15.21884160115402
ZACUBE-2                
1 43907U 18111AH  21014.33584671  .00000625  00000-0  27748-4 0  9995
2 43907  97.2490 273.5182 0022785 115.8966 354.1974 15.24908856114146
LUME 1                  
1 43908U 18111AJ  21014.29295005  .00001253  00000-0  51686-4 0  9997
2 43908  97.2494 273.8300 0022348 115.1215 245.2345 15.25661490114166
AOBA VELOX-IV           
1 43940U 19003J   21014.40585271  .00002671  00000-0  10570-3 0  9995
2 43940  97.2013  64.2205 0022810 192.0630 168.0065 15.26057180110808
CATSAT-2                
1 44029U 98067PV  21013.26307156  .00069221  00000-0  36339-3 0  9993
2 44029  51.6398 324.5802 0004240 131.9559 228.1805 15.80093936111496
DELPHINI                
1 44030U 98067PW  21013.77228122  .00095877  00000-0  39537-3 0  9995
2 44030  51.6304 317.1916 0005540 128.0559 232.0945 15.85116075111607
UNITE                   
1 44031U 98067PX  21014.18499452  .00019488  00000-0  17654-3 0  9998
2 44031  51.6381 335.9995 0003491 120.0994 240.0349 15.68062971111395
CATSAT-1                
1 44033U 98067PZ  21013.76911324  .00074289  00000-0  38811-3 0  9998
2 44033  51.6398 321.9702 0003897 132.8941 227.2388 15.80174258111485
RAAVANA-1               
1 44329U 98067QE  21013.67614156  .00021544  00000-0  21839-3 0  9997
2 44329  51.6379 355.9494 0006515  69.8591 290.3105 15.65164581 89839
UGUISU                  
1 44330U 98067QF  21014.21574599  .00021292  00000-0  21738-3 0  9994
2 44330  51.6361 353.4981 0006532  71.3786 288.7918 15.64992136 89892
NEPALISAT-1             
1 44331U 98067QG  21014.17813868  .00020002  00000-0  20313-3 0  9991
2 44331  51.6358 353.2484 0006569  73.8109 286.3608 15.65171342 89902
SPOOQY-1                
1 44332U 98067QH  21014.20406358  .00020206  00000-0  20771-3 0  9992
2 44332  51.6368 353.4404 0005851  75.5871 284.5773 15.64861540 89869
SPACEBEE-9              
1 44370U 19037F   21014.37482774  .00013507  00000-0  24851-3 0  9997
2 44370  45.0047  12.6510 0012027   7.5969 352.5103 15.49141643 87230
SPACEBEE-8              
1 44371U 19037G   21014.22485036  .00057452  00000-0  64575-3 0  9990
2 44371  45.0040 355.4596 0009815  60.7417 299.4460 15.61785996 87409
IOD-1 GEMS              
1 44385U 98067QK  21014.30721780  .00056557  00000-0  36155-3 0  9991
2 44385  51.6370 343.6698 0005039  76.1553 284.0007 15.75757847 87519
MOVE-IIB                
1 44398U 19038N   21014.44817463  .00001219  00000-0  72246-4 0  9992
2 44398  97.5630 339.4052 0025855 118.1526 242.2321 15.13032205 84476
SONATE                  
1 44400U 19038Q   21013.82789855  .00000680  00000-0  42804-4 0  9998
2 44400  97.5677 338.7624 0026303 120.1070 240.2775 15.12266948 84365
LUCKY-7                 
1 44406U 19038W   21014.39856787  .00000683  00000-0  42637-4 0  9993
2 44406  97.5693 339.5083 0025828 117.4644 242.9217 15.12601375 84451
BEESAT 9                
1 44412U 19038AC  21014.44526446  .00001022  00000-0  61589-4 0  9997
2 44412  97.5679 339.5474 0023740 122.2887 238.0647 15.12809915 84161
JAISAT-1                
1 44419U 19038F   21014.39813367  .00000969  00000-0  57894-4 0  9992
2 44419  97.5683 339.9263 0022621 121.0862 239.2592 15.13293729 84499
SWIATOWID               
1 44426U 98067QL  21014.34122844  .00112775  00000-0  57757-3 0  9993
2 44426  51.6377 339.7544 0005892  77.8794  74.9247 15.80429037 87582
KRAKSAT                 
1 44427U 98067QM  21014.33948120  .00014619  00000-0  17684-3 0  9999
2 44427  51.6442   0.1584 0004170  41.7284  99.1870 15.60940905 87357
VCC A                   
1 44428U 98067QN  21014.22125223  .00020101  00000-0  21271-3 0  9999
2 44428  51.6389 355.8988 0003937  55.1220 305.0144 15.64135936 87408
ENTRYSAT                
1 44429U 98067QP  21014.22349686  .00028528  00000-0  26591-3 0  9992
2 44429  51.6354 352.0860 0003995  57.7736 302.3647 15.67100810 87452
VCC C                   
1 44430U 98067QQ  21014.28629552  .00037889  00000-0  29192-3 0  9993
2 44430  51.6356 347.2486 0004367  71.4738 288.6734 15.71581314 86342
VCC B                   
1 44431U 98067QR  21014.33686550  .00017856  00000-0  18830-3 0  9990
2 44431  51.6368 355.1218 0004062  55.5250 304.6129 15.64316429 87366
DUCHIFAT-3              
1 44854U 19089C   21014.16348856  .00000423  00000-0  40389-4 0  9998
2 44854  36.9667 292.9312 0009311 323.3029  36.7073 14.99292325 59936
EYESAT-NANO             
1 44877U 19092E   21014.40798898  .00001336  00000-0  70037-4 0  9996
2 44877  97.4546 200.3214 0013662  12.0222 348.1335 15.17440442 59571
ORBITAL FACTORY 2 (OF-2)
1 45113U 19071C   21013.41020512  .00002799  00000-0  93376-4 0  9993
2 45113  51.6435  68.5709 0012921  93.2975 266.9486 15.34581327 53351
M2 PATHFINDER           
1 45727U 20037E   21014.03201166 -.00000320  00000-0 -26557-4 0  9990
2 45727  97.7021 195.2781 0012484 325.8797  34.1617 14.91294927 29401
NETSAT-4                
1 46504U 20068U   21013.81259594  .00000269  00000-0  25166-4 0  9996
2 46504  97.6812 312.1068 0007716 268.3053  91.7288 15.01958169 16022
NETSAT-3                
1 46505U 20068V   21013.81538183  .00000336  00000-0  30278-4 0  9996
2 46505  97.6808 312.0958 0007621 267.5854  92.4497 15.01922595 16035
NETSAT-1                
1 46506U 20068W   21013.81836400  .00000445  00000-0  38667-4 0  9991
2 46506  97.6800 312.0862 0007188 266.6333  93.4070 15.01887230 16036
NETSAT-2                
1 46507U 20068X   21013.81956330  .00000424  00000-0  37062-4 0  9992
2 46507  97.6802 312.0876 0007416 267.3676  92.6699 15.01866778 15981
SPOC                    
1 46921U 98067RR  21013.75354571  .00006353  00000-0  11325-3 0  9998
2 46921  51.6435  25.7438 0001360 204.6094 155.4831 15.51469082 10821
BOBCAT-1                
1 46922U 98067RS  21014.38794359  .00006705  00000-0  11716-3 0  9996
2 46922  51.6438  22.4827 0000844 207.1278 152.9668 15.51935583 10878
NEUTRON-1               
1 46923U 98067RT  21014.20853894  .00005889  00000-0  10589-3 0  9997
2 46923  51.6434  23.5317 0001127 230.0168 130.0722 15.51375107 10912
1998-067RU              
1 46924U 98067RU  21014.17984426  .00013017  00000-0  21412-3 0  9999
2 46924  51.6426  23.3400 0001035 326.7259  33.3666 15.52716142 10873
